290P/Jager,e,20.0514,302.6802,181.8206,6.216137,0.0635950,0.62777376,232.3059,01/23.0/2024,2000,g 10.5,4.0
# From MPEC 2024-B57
291P/NEAT,e,6.3098,237.6607,173.5070,4.533977,0.1020904,0.43419907,26.9489,01/23.0/2024,2000,g 13.0,4.0
# From MPEC 2022-K19
292P/Li,e,24.3118,90.9032,319.6008,6.099054,0.0654350,0.58997161,237.9126,01/23.0/2024,2000,g 12.5,4.0
# From MPEC 2022-L66
293P/Spacewatch,e,9.0612,78.3656,40.9500,3.639381,0.1419590,0.41895100,160.3364,01/23.0/2024,2000,g 14.5,4.0
# From MPEC 2020-SI8
294P/LINEAR,e,18.1492,311.6222,235.6383,3.192406,0.1727933,0.60138961,262.1343,01/23.0/2024,2000,g 15.5,4.0
# From MPEC 2022-K19
295P/LINEAR,e,21.0766,7.4121,72.9498,5.302807,0.0807133,0.61750433,286.4094,01/23.0/2024,2000,g 12.0,4.0
# From MPEC 2021-N06
296P/Garradd,e,25.2919,263.5210,349.9142,3.488747,0.1512515,0.47991902,184.9159,01/23.0/2024,2000,g 14.0,4.0
# From MPC102956
297P/Beshore,e,10.5232,94.9551,137.9893,3.495360,0.1508225,0.31671441,163.5062,01/23.0/2024,2000,g 15.0,4.0
# From MPC114609
298P/Christensen,e,7.8706,52.8088,100.5950,3.589391,0.1449349,0.38638002,178.9005,01/23.0/2024,2000,g 15.0,4.0
# From MPEC 2024-B57
299P/Catalina-PANSTARRS,e,10.4676,271.5845,323.6991,4.389576,0.1071693,0.28094688,349.4525,01/23.0/2024,2000,g 11.5,4.0
# From MPEC 2023-VM5
300P/Catalina,e,5.6752,95.6168,222.9350,2.697976,0.2224063,0.69174212,63.8059,01/23.0/2024,2000,g 16.0,4.0
# From MPC 89014
301P/LINEAR-NEAT,e,10.3333,351.0851,193.5186,5.745179,0.0715729,0.58576700,247.0548,01/23.0/2024,2000,g 13.0,4.0
# From MPEC 2023-N01
302P/Lemmon-PANSTARRS,e,6.0344,121.7165,208.5886,4.270794,0.1116712,0.22994948,314.0853,01/23.0/2024,2000,g 12.5,4.0
# From MPC 92278
303P/NEAT,e,7.0175,347.9818,356.9972,5.041975,0.0870569,0.51064811,293.9486,01/23.0/2024,2000,g 13.5,4.0
# From MPEC 2022-K19
304P/Ory,e,2.6065,58.9405,335.2561,3.150457,0.1762559,0.60100481,221.6423,01/23.0/2024,2000,g 16.5,4.0
# From MPC101100
305P/Skiff,e,11.6669,240.1472,147.3682,4.636676,0.0987175,0.69400309,330.4725,01/23.0/2024,2000,g 18.0,4.0
# From MPC 92278
306P/LINEAR,e,8.3054,341.3743,0.8903,3.124453,0.1784609,0.59282153,260.6775,01/23.0/2024,2000,g 19.0,4.0
# From MPC 92278
307P/LINEAR,e,4.4369,158.1716,222.1888,5.788327,0.0707741,0.67550405,234.4477,01/23.0/2024,2000,g 15.0,4.0
# From MPEC 2022-C56
308P/Lagerkvist-Carsenty,e,4.8533,63.0962,333.6885,6.599481,0.0581352,0.36471214,184.6315,01/23.0/2024,2000,g 13.0,2.0
# From MPEC 2024-B57
309P/LINEAR,e,17.0226,10.1447,49.9189,4.376673,0.1076435,0.61849739,352.8942,01/23.0/2024,2000,g 15.0,4.0
# From MPEC 2024-B57
310P/Hill,e,13.1201,8.9078,31.5839,4.186964,0.1150417,0.42282719,10.5206,01/23.0/2024,2000,g 13.5,4.0
# From MPEC 2024-A43
311P/PANSTARRS,e,4.9706,279.1732,144.2713,2.188825,0.3043599,0.11586386,6.4096,01/23.0/2024,2000,g 17.0,4.0
# From MPEC 2021-BE3
312P/NEAT,e,19.7594,144.7024,207.6580,3.470908,0.1524191,0.42725575,185.1874,01/23.0/2024,2000,g 16.0,4.0
# From MPEC 2021-S45
313P/Gibbs,e,10.9805,106.0015,254.8606,3.164225,0.1751068,0.23476128,241.0272,01/23.0/2024,2000,g 15.0,4.0
# From MPC105243
314P/Montani,e,3.9898,267.6137,213.8579,7.252816,0.0504596,0.41764967,134.2956,01/23.0/2024,2000,g  9.5,4.0
# From MPEC 2023-J29
315P/LONEOS,e,17.7323,68.7081,65.7912,4.939057,0.0897921,0.52146017,234.8192,01/23.0/2024,2000,g 11.0,4.0
# From MPC 92279
316P/LONEOS-Christensen,e,9.8065,192.2113,243.2881,4.418652,0.1061132,0.15830000,330.9594,01/23.0/2024,2000,g 13.5,4.0
# From MPEC 2020-C98
317P/WISE,e,11.9645,275.4669,334.8212,2.961486,0.1933925,0.57119668,234.8278,01/23.0/2024,2000,g 17.5,4.0
# From MPC102103
318P/McNaught-Hartley,e,17.8750,35.5610,313.3228,7.509323,0.0478964,0.67442521,144.2276,01/23.0/2024,2000,g  8.5,6.0
# From MPC 97499
319P/Catalina-McNaught,e,15.0941,111.3455,203.6617,3.563810,0.1464982,0.66634852,97.0973,01/23.0/2024,2000,g 15.0,4.0
# From MPC 96281
320P/McNaught,e,4.9039,295.9422,0.7815,3.094953,0.1810185,0.68487452,199.4188,01/23.0/2024,2000,g 20.5,4.0
# From MPC105243
321P/SOHO,e,20.0791,165.0106,172.7503,2.422445,0.2614105,0.98105811,0.0000,10/26.6093/2023,2000,g 20.0,4.0
# From MPC102103
322P/SOHO,e,11.4724,351.5046,56.9123,2.507989,0.2481507,0.97998150,0.0000,08/21.0886/2023,2000,g 19.0,4.0
# From MPEC 2023-XP6
323P/SOHO,e,5.3328,324.2790,353.1325,2.583424,0.2373617,0.98463670,0.0000,03/14.3116/2025,2000,g 20.0,4.0
# From MPEC 2021-W31
324P/LaSagra,e,21.3998,270.5785,57.5505,3.095540,0.1809670,0.15326655,179.7705,01/23.0/2024,2000,g 13.0,4.0
# From MPEC 2022-TA0
325P/Yang-Gao,e,16.7751,257.1717,344.5051,3.541108,0.1479092,0.59198055,98.3839,01/23.0/2024,2000,g 14.0,4.0
# From MPEC 2023-XP6
326P/Hill,e,2.4711,99.7943,278.6406,4.068370,0.1201084,0.31920290,2.8363,01/23.0/2024,2000,g 13.5,4.0
# From MPEC 2024-A43
327P/VanNess,e,36.2478,173.9884,185.0338,3.562189,0.1465982,0.56298223,74.4262,01/23.0/2024,2000,g 16.0,4.0
# From MPC109148
328P/LONEOS-Tucker,e,17.6754,341.6516,30.6061,4.188147,0.1149930,0.55266906,338.4994,01/23.0/2024,2000,g 14.5,4.0
# From MPC101101
329P/LINEAR-Catalina,e,21.7116,87.6854,343.5510,5.185691,0.0834630,0.67870846,248.0402,01/23.0/2024,2000,g 13.5,4.0
# From MPEC 2023-J29
330P/Catalina,e,15.7257,293.0792,188.8209,6.618754,0.0578815,0.54970351,156.5550,01/23.0/2024,2000,g 12.0,4.0
# From MPEC 2023-KD6
331P/Gibbs,e,9.7402,216.7520,184.8982,3.004520,0.1892524,0.04146809,227.8479,01/23.0/2024,2000,g 12.0,4.0
# From MPEC 2016-K18
332P/Ikeya-Murakami,e,9.3818,3.7621,152.2927,3.086962,0.1817218,0.48939909,161.3312,01/23.0/2024,2000,g 18.0,4.0
# From MPEC 2016-K18
332P-A/Ikeya-Murakami,e,9.3823,152.3095,3.7454,3.086959,0.1817222,0.48940221,161.3308,01/23.0/2024,2000,g  9.0,4.0
# From MPEC 2016-EI8
332P-B/Ikeya-Murakami,e,9.3805,3.8028,152.3711,3.082329,0.1821317,0.48970701,359.9699,03/17.0/2016,2000,g 19.0,4.0
# From MPEC 2016-K18
332P-C/Ikeya-Murakami,e,9.3813,152.3008,3.7458,3.086925,0.1817251,0.48940776,161.3477,01/23.0/2024,2000,g 16.5,4.0
# From MPEC 2016-ED0
332P-D/Ikeya-Murakami,e,9.3761,3.7923,152.4393,3.081138,0.1822373,0.48977814,359.9486,03/17.0/2016,2000,g 19.0,4.0
# From MPEC 2016-ED0
332P-E/Ikeya-Murakami,e,9.3774,3.8228,152.2825,3.079877,0.1823493,0.48922008,359.9889,03/17.0/2016,2000,g 21.0,4.0
# From MPEC 2016-ED0
332P-F/Ikeya-Murakami,e,9.5293,3.4757,152.8203,3.163214,0.1751908,0.49918860,359.8501,03/17.0/2016,2000,g 21.0,4.0
# From MPEC 2016-ED0
332P-G/Ikeya-Murakami,e,9.2523,3.6955,154.4000,3.050519,0.1849880,0.49200362,359.9006,03/19.0/2016,2000,g 19.0,4.0
# From MPC100285
332P-H/Ikeya-Murakami,e,9.3819,152.3014,3.7456,3.087107,0.1817091,0.48944337,161.2682,01/23.0/2024,2000,g 19.0,4.0
# From MPEC 2016-ED0
332P-I/Ikeya-Murakami,e,9.3791,3.8048,152.3297,3.081767,0.1821815,0.48955490,359.9360,03/17.0/2016,2000,g 20.5,2.0
# From MPEC 2016-EI8
332P-J/Ikeya-Murakami,e,9.4296,3.6729,152.7712,3.115165,0.1792596,0.49429435,359.8613,03/17.0/2016,2000,g 20.5,2.0
# From MPEC 2020-L06
333P/LINEAR,e,132.0100,115.6568,26.0033,4.222023,0.1136117,0.73650788,324.6660,01/23.0/2024,2000,g 15.0,4.0
# From MPEC 2023-J29
334P/NEAT,e,20.3789,90.5016,90.0428,6.830970,0.0552053,0.35094244,133.8719,01/23.0/2024,2000,g 10.5,4.0
# From MPEC 2023-M14
335P/Gibbs,e,7.2934,330.8241,162.2985,3.577933,0.1456317,0.54642030,77.0307,01/23.0/2024,2000,g 16.8,4.0
# From MPC105244
336P/McNaught,e,17.8241,298.2185,308.6568,5.037681,0.0871682,0.44385822,222.4682,01/23.0/2024,2000,g 13.5,4.0
# From MPEC 2024-A43
337P/WISE,e,15.4239,105.5257,161.7314,3.294343,0.1648355,0.49817741,93.9168,01/23.0/2024,2000,g 17.0,4.0
# From MPEC 2023-J29
338P/McNaught,e,25.3866,9.7935,4.5699,3.891742,0.1283772,0.41211687,335.2268,01/23.0/2024,2000,g 12.0,4.0
# From MPC101101
339P/Gibbs,e,5.7331,27.4778,172.6985,3.700606,0.1384506,0.63567426,20.0840,01/23.0/2024,2000,g 17.0,4.0
# From MPC133426
340P/Boattini,e,2.0783,291.6747,36.0410,4.249132,0.1125262,0.28043079,294.2726,01/23.0/2024,2000,g 14.3,4.0
# From MPEC 2023-J29
341P/Gibbs,e,3.7967,29.9653,312.3196,4.288425,0.1109832,0.41551446,309.4402,01/23.0/2024,2000,g 12.5,4.0
# From MPC101101
342P/SOHO,e,11.6911,73.3129,27.6425,3.041138,0.1858445,0.98289479,0.0000,10/19.3635/2021,2000,g  9.0,4.0
# From MPEC 2023-J29
343P/NEAT-LONEOS,e,5.5955,257.0688,137.5643,5.457491,0.0773062,0.58526938,196.8222,01/23.0/2024,2000,g 14.0,4.0
# From MPEC 2023-J29
344P/Read,e,3.4980,273.1022,140.5332,4.858315,0.0920398,0.42369940,242.3371,01/23.0/2024,2000,g 13.0,4.0
# From MPEC 2022-K19
345P/LINEAR,e,2.7279,154.5954,196.6468,4.032115,0.1217320,0.22129864,333.1147,01/23.0/2024,2000,g 12.0,4.0
# From MPEC 2022-K19
346P/Catalina,e,22.2150,102.4536,336.0022,4.471168,0.1042492,0.50374987,263.9654,01/23.0/2024,2000,g 14.0,4.0
# From MPEC 2023-XP6
347P/PANSTARRS,e,11.7584,260.9908,98.4131,3.607741,0.1438305,0.38683943,26.9030,01/23.0/2024,2000,g 15.0,4.0
# From MPEC 2022-ED3
348P/PANSTARRS,e,17.7369,312.9377,135.7011,3.151951,0.1761306,0.30730736,124.9087,01/23.0/2024,2000,g 14.0,4.0
# From MPEC 2024-B57
349P/Lemmon,e,5.4885,331.7542,255.8000,3.578260,0.1456117,0.29852593,341.7739,01/23.0/2024,2000,g 14.0,4.0
# From MPC111775
350P/McNaught,e,7.3638,65.2931,139.8708,4.081939,0.1195100,0.09425418,266.3621,01/23.0/2024,2000,g 14.0,4.0
# From MPC105244
351P/Wiegert-PANSTARRS,e,12.7764,352.6838,283.3366,4.440447,0.1053329,0.29481760,314.8637,01/23.0/2024,2000,g 12.5,4.0
# From MPEC 2023-J29
352P/Skiff,e,21.0138,28.0050,309.4033,6.651149,0.0574591,0.61707443,138.2577,01/23.0/2024,2000,g 13.2,4.0
# From MPEC 2020-AA5
353P/McNaught,e,28.4166,121.5381,230.4804,4.170648,0.1157174,0.47007177,256.9872,01/23.0/2024,2000,g 14.5,4.0
# From MPC105545
354P/LINEAR,e,5.2530,132.7460,320.0360,2.289871,0.2844380,0.12455259,28.7540,01/23.0/2024,2000,g 15.5,4.0
# From MPEC 2023-CD7
355P/LINEAR-NEAT,e,11.0472,51.4341,336.3377,3.468811,0.1525573,0.50796913,349.4096,01/23.0/2024,2000,g 15.5,2.0
# From MPEC 2022-F14
356P/WISE,e,9.6401,160.8177,226.1088,4.154964,0.1163733,0.35607225,258.6498,01/23.0/2024,2000,g 14.0,4.0
# From MPC114609
